SL-16 R/B               
1 22285U 92093B   25302.85719741 -.00000143  00000+0 -49068-4 0  9996
2 22285  71.0201 278.9118 0003579 181.7571 178.3540 14.15418103694647
COSMOS 2228             
1 22286U 92094A   25302.89656211  .00002947  00000+0  25681-3 0  9990
2 22286  82.5207   2.4749 0018683  27.0159 333.2031 14.96436086756495
SL-16 R/B               
1 22566U 93016B   25302.95527768 -.00000148  00000+0 -51586-4 0  9994
2 22566  71.0055 129.7612 0009714 175.8951 184.2253 14.15279818683677
COSMOS 2242             
1 22626U 93024A   25302.62353887  .00002750  00000+0  24332-3 0  9990
2 22626  82.5217  31.9941 0017076  30.7831 329.4389 14.95833634760798
SL-16 R/B               
1 22803U 93059B   25302.90050969 -.00000013  00000+0  17232-4 0  9994
2 22803  70.9893 286.9300 0015408  43.4103 316.8231 14.17202811661008
ARIANE 40 R/B           
1 22830U 93061H   25302.90190590  .00000329  00000+0  13651-3 0  9991
2 22830  98.5128   9.2188 0009822 315.4358  44.6035 14.32759922675372
COSMOS 2278             
1 23087U 94023A   25302.82757013 -.00000078  00000+0 -15813-4 0  9991
2 23087  71.0515  88.8777 0010692 236.8723 123.1375 14.14330967626302
SL-16 R/B               
1 23088U 94023B   25302.86331854  .00000196  00000+0  12595-3 0  9999
2 23088  71.0016 345.6309 0002292 181.4879 178.6238 14.14991039627585
SL-16 R/B               
1 23343U 94074B   25302.97779950  .00000662  00000+0  95859-4 0  9997
2 23343  97.7263 334.0091 0005212 292.1258 131.0423 14.79213157667924
SL-16 R/B               
1 23405U 94077B   25302.96658926 -.00000140  00000+0 -46848-4 0  9994
2 23405  70.9814 267.4987 0003436 318.5564  41.5298 14.15538412597730
ARIANE 40+ R/B          
1 23561U 95021B   25302.97279525  .00000432  00000+0  15223-3 0  9996
2 23561  98.4701  11.0802 0007096 165.0212   7.7272 14.39643302600432
SL-16 R/B               
1 23705U 95058B   25302.82576978  .00000315  00000+0  18572-3 0  9992
2 23705  71.0194  94.9976 0014072 312.4562  47.5371 14.15469579549334
