CCSDS_OMM_VERS = 2.0
CREATION_DATE  = 
ORIGINATOR     = 

OBJECT_NAME    = SL-16 R/B
OBJECT_ID      = 1992-093B
CENTER_NAME    = EARTH
REF_FRAME      = TEME
TIME_SYSTEM    = UTC
MEAN_ELEMENT_THEORY = SGP/SGP4

EPOCH          = 2025-10-29T20:34:21.856224
MEAN_MOTION    = 14.15418103
ECCENTRICITY   = .00035794
INCLINATION    = 71.0201
RA_OF_ASC_NODE = 278.9118
ARG_OF_PERICENTER = 181.7571
MEAN_ANOMALY   = 178.3540

EPHEMERIS_TYPE = 0
CLASSIFICATION_TYPE = U
NORAD_CAT_ID   = 22285
ELEMENT_SET_NO = 999
REV_AT_EPOCH   = 69464
BSTAR          = -.49067643E-4
MEAN_MOTION_DOT = -.143E-5
MEAN_MOTION_DDOT = 0

CCSDS_OMM_VERS = 2.0
CREATION_DATE  = 
ORIGINATOR     = 

OBJECT_NAME    = COSMOS 2228
OBJECT_ID      = 1992-094A
CENTER_NAME    = EARTH
REF_FRAME      = TEME
TIME_SYSTEM    = UTC
MEAN_ELEMENT_THEORY = SGP/SGP4

EPOCH          = 2025-10-29T21:31:02.966304
MEAN_MOTION    = 14.96436086
ECCENTRICITY   = .00186836
INCLINATION    = 82.5207
RA_OF_ASC_NODE = 2.4749
ARG_OF_PERICENTER = 27.0159
MEAN_ANOMALY   = 333.2031

EPHEMERIS_TYPE = 0
CLASSIFICATION_TYPE = U
NORAD_CAT_ID   = 22286
ELEMENT_SET_NO = 999
REV_AT_EPOCH   = 75649
BSTAR          = .25680592E-3
MEAN_MOTION_DOT = .2947E-4
MEAN_MOTION_DDOT = 0

CCSDS_OMM_VERS = 2.0
CREATION_DATE  = 
ORIGINATOR     = 

OBJECT_NAME    = SL-16 R/B
OBJECT_ID      = 1993-016B
CENTER_NAME    = EARTH
REF_FRAME      = TEME
TIME_SYSTEM    = UTC
MEAN_ELEMENT_THEORY = SGP/SGP4

EPOCH          = 2025-10-29T22:55:35.991552
MEAN_MOTION    = 14.15279818
ECCENTRICITY   = .00097141
INCLINATION    = 71.0055
RA_OF_ASC_NODE = 129.7612
ARG_OF_PERICENTER = 175.8951
MEAN_ANOMALY   = 184.2253

EPHEMERIS_TYPE = 0
CLASSIFICATION_TYPE = U
NORAD_CAT_ID   = 22566
ELEMENT_SET_NO = 999
REV_AT_EPOCH   = 68367
BSTAR          = -.51586005E-4
MEAN_MOTION_DOT = -.148E-5
MEAN_MOTION_DDOT = 0

CCSDS_OMM_VERS = 2.0
CREATION_DATE  = 
ORIGINATOR     = 

OBJECT_NAME    = COSMOS 2242
OBJECT_ID      = 1993-024A
CENTER_NAME    = EARTH
REF_FRAME      = TEME
TIME_SYSTEM    = UTC
MEAN_ELEMENT_THEORY = SGP/SGP4

EPOCH          = 2025-10-29T14:57:53.758368
MEAN_MOTION    = 14.95833634
ECCENTRICITY   = .0017076
INCLINATION    = 82.5217
RA_OF_ASC_NODE = 31.9941
ARG_OF_PERICENTER = 30.7831
MEAN_ANOMALY   = 329.4389

EPHEMERIS_TYPE = 0
CLASSIFICATION_TYPE = U
NORAD_CAT_ID   = 22626
ELEMENT_SET_NO = 999
REV_AT_EPOCH   = 76079
BSTAR          = .24331558E-3
MEAN_MOTION_DOT = .275E-4
MEAN_MOTION_DDOT = 0

CCSDS_OMM_VERS = 2.0
CREATION_DATE  = 
ORIGINATOR     = 

OBJECT_NAME    = SL-16 R/B
OBJECT_ID      = 1993-059B
CENTER_NAME    = EARTH
REF_FRAME      = TEME
TIME_SYSTEM    = UTC
MEAN_ELEMENT_THEORY = SGP/SGP4

EPOCH          = 2025-10-29T21:36:44.037216
MEAN_MOTION    = 14.17202811
ECCENTRICITY   = .00154084
INCLINATION    = 70.9893
RA_OF_ASC_NODE = 286.9300
ARG_OF_PERICENTER = 43.4103
MEAN_ANOMALY   = 316.8231

EPHEMERIS_TYPE = 0
CLASSIFICATION_TYPE = U
NORAD_CAT_ID   = 22803
ELEMENT_SET_NO = 999
REV_AT_EPOCH   = 66100
BSTAR          = .17231705E-4
MEAN_MOTION_DOT = -.13E-6
MEAN_MOTION_DDOT = 0

CCSDS_OMM_VERS = 2.0
CREATION_DATE  = 
ORIGINATOR     = 

OBJECT_NAME    = ARIANE 40 R/B
OBJECT_ID      = 1993-061H
CENTER_NAME    = EARTH
REF_FRAME      = TEME
TIME_SYSTEM    = UTC
MEAN_ELEMENT_THEORY = SGP/SGP4

EPOCH          = 2025-10-29T21:38:44.669760
MEAN_MOTION    = 14.32759922
ECCENTRICITY   = .00098226
INCLINATION    = 98.5128
RA_OF_ASC_NODE = 9.2188
ARG_OF_PERICENTER = 315.4358
MEAN_ANOMALY   = 44.6035

EPHEMERIS_TYPE = 0
CLASSIFICATION_TYPE = U
NORAD_CAT_ID   = 22830
ELEMENT_SET_NO = 999
REV_AT_EPOCH   = 67537
BSTAR          = .13651347E-3
MEAN_MOTION_DOT = .329E-5
MEAN_MOTION_DDOT = 0

CCSDS_OMM_VERS = 2.0
CREATION_DATE  = 
ORIGINATOR     = 

OBJECT_NAME    = COSMOS 2278
OBJECT_ID      = 1994-023A
CENTER_NAME    = EARTH
REF_FRAME      = TEME
TIME_SYSTEM    = UTC
MEAN_ELEMENT_THEORY = SGP/SGP4

EPOCH          = 2025-10-29T19:51:42.059232
MEAN_MOTION    = 14.14330967
ECCENTRICITY   = .00106928
INCLINATION    = 71.0515
RA_OF_ASC_NODE = 88.8777
ARG_OF_PERICENTER = 236.8723
MEAN_ANOMALY   = 123.1375

EPHEMERIS_TYPE = 0
CLASSIFICATION_TYPE = U
NORAD_CAT_ID   = 23087
ELEMENT_SET_NO = 999
REV_AT_EPOCH   = 62630
BSTAR          = -.158132E-4
MEAN_MOTION_DOT = -.78E-6
MEAN_MOTION_DDOT = 0

CCSDS_OMM_VERS = 2.0
CREATION_DATE  = 
ORIGINATOR     = 

OBJECT_NAME    = SL-16 R/B
OBJECT_ID      = 1994-023B
CENTER_NAME    = EARTH
REF_FRAME      = TEME
TIME_SYSTEM    = UTC
MEAN_ELEMENT_THEORY = SGP/SGP4

EPOCH          = 2025-10-29T20:43:10.721856
MEAN_MOTION    = 14.14991039
ECCENTRICITY   = .00022927
INCLINATION    = 71.0016
RA_OF_ASC_NODE = 345.6309
ARG_OF_PERICENTER = 181.4879
MEAN_ANOMALY   = 178.6238

EPHEMERIS_TYPE = 0
CLASSIFICATION_TYPE = U
NORAD_CAT_ID   = 23088
ELEMENT_SET_NO = 999
REV_AT_EPOCH   = 62758
BSTAR          = .12595397E-3
MEAN_MOTION_DOT = .196E-5
MEAN_MOTION_DDOT = 0

CCSDS_OMM_VERS = 2.0
CREATION_DATE  = 
ORIGINATOR     = 

OBJECT_NAME    = SL-16 R/B
OBJECT_ID      = 1994-074B
CENTER_NAME    = EARTH
REF_FRAME      = TEME
TIME_SYSTEM    = UTC
MEAN_ELEMENT_THEORY = SGP/SGP4

EPOCH          = 2025-10-29T23:28:01.876800
MEAN_MOTION    = 14.79213157
ECCENTRICITY   = .00052122
INCLINATION    = 97.7263
RA_OF_ASC_NODE = 334.0091
ARG_OF_PERICENTER = 292.1258
MEAN_ANOMALY   = 131.0423

EPHEMERIS_TYPE = 0
CLASSIFICATION_TYPE = U
NORAD_CAT_ID   = 23343
ELEMENT_SET_NO = 999
REV_AT_EPOCH   = 66792
BSTAR          = .95858744E-4
MEAN_MOTION_DOT = .662E-5
MEAN_MOTION_DDOT = 0

CCSDS_OMM_VERS = 2.0
CREATION_DATE  = 
ORIGINATOR     = 

OBJECT_NAME    = SL-16 R/B
OBJECT_ID      = 1994-077B
CENTER_NAME    = EARTH
REF_FRAME      = TEME
TIME_SYSTEM    = UTC
MEAN_ELEMENT_THEORY = SGP/SGP4

EPOCH          = 2025-10-29T23:11:53.312064
MEAN_MOTION    = 14.15538412
ECCENTRICITY   = .00034364
INCLINATION    = 70.9814
RA_OF_ASC_NODE = 267.4987
ARG_OF_PERICENTER = 318.5564
MEAN_ANOMALY   = 41.5298

EPHEMERIS_TYPE = 0
CLASSIFICATION_TYPE = U
NORAD_CAT_ID   = 23405
ELEMENT_SET_NO = 999
REV_AT_EPOCH   = 59773
BSTAR          = -.4684757E-4
MEAN_MOTION_DOT = -.14E-5
MEAN_MOTION_DDOT = 0

CCSDS_OMM_VERS = 2.0
CREATION_DATE  = 
ORIGINATOR     = 

OBJECT_NAME    = ARIANE 40+ R/B
OBJECT_ID      = 1995-021B
CENTER_NAME    = EARTH
REF_FRAME      = TEME
TIME_SYSTEM    = UTC
MEAN_ELEMENT_THEORY = SGP/SGP4

EPOCH          = 2025-10-29T23:20:49.509600
MEAN_MOTION    = 14.39643302
ECCENTRICITY   = .00070966
INCLINATION    = 98.4701
RA_OF_ASC_NODE = 11.0802
ARG_OF_PERICENTER = 165.0212
MEAN_ANOMALY   = 7.7272

EPHEMERIS_TYPE = 0
CLASSIFICATION_TYPE = U
NORAD_CAT_ID   = 23561
ELEMENT_SET_NO = 999
REV_AT_EPOCH   = 60043
BSTAR          = .15223498E-3
MEAN_MOTION_DOT = .432E-5
MEAN_MOTION_DDOT = 0

CCSDS_OMM_VERS = 2.0
CREATION_DATE  = 
ORIGINATOR     = 

OBJECT_NAME    = SL-16 R/B
OBJECT_ID      = 1995-058B
CENTER_NAME    = EARTH
REF_FRAME      = TEME
TIME_SYSTEM    = UTC
MEAN_ELEMENT_THEORY = SGP/SGP4

EPOCH          = 2025-10-29T19:49:06.508992
MEAN_MOTION    = 14.15469579
ECCENTRICITY   = .00140721
INCLINATION    = 71.0194
RA_OF_ASC_NODE = 94.9976
ARG_OF_PERICENTER = 312.4562
MEAN_ANOMALY   = 47.5371

EPHEMERIS_TYPE = 0
CLASSIFICATION_TYPE = U
NORAD_CAT_ID   = 23705
ELEMENT_SET_NO = 999
REV_AT_EPOCH   = 54933
BSTAR          = .18571937E-3
MEAN_MOTION_DOT = .315E-5
MEAN_MOTION_DDOT = 0

